NORAD_CAT_ID,OBJECT_NAME,OBJECT_TYPE,EPOCH,MEAN_MOTION,ECCENTRICITY,INCLINATION,RA_OF_ASC_NODE,ARG_OF_PERICENTER,MEAN_ANOMALY,BSTAR,MEAN_MOTION_DOT,MEAN_MOTION_DDOT,TLE_LINE0,TLE_LINE1,TLE_LINE2,SEMIMAJOR_AXIS,PERIOD,APOGEE,PERIGEE,DECAYED
54072.0,STARLINK-5144,PAYLOAD,2022-11-18 14:00:01,15.49913744,0.0002125,53.2163,5.7796,40.1633,289.1606,-0.00062801,-0.0003597,0.0,0 STARLINK-5144,1 54072U 22136X   22322.58334491 -.00035970  00000-0 -62801-3 0  9996,2 54072  53.2163   5.7796 0002125  40.1633 289.1606 15.49913744  1304,6795.115,92.908,418.424,415.536,0.0
54072.0,STARLINK-5144,PAYLOAD,2022-11-18 22:00:00,15.49843479,0.0001861,53.2162,4.1857,41.429,348.8404,0.00063453,0.00035673,0.0,0 STARLINK-5144,1 54072U 22136X   22322.91667824  .00035673  00000-0  63453-3 0  9994,2 54072  53.2162   4.1857 0001861  41.4290 348.8404 15.49843479  1309,6795.321,92.913,418.45,415.921,0.0
54072.0,STARLINK-5144,PAYLOAD,2022-11-19 14:00:01,15.49686049,0.0002002,53.2168,0.9962,34.0973,117.9768,-0.0091382,-0.00484865,0.0,0 STARLINK-5144,1 54072U 22136X   22323.58334491 -.00484865  00000-0 -91382-2 0  9993,2 54072  53.2168   0.9962 0002002  34.0973 117.9768 15.49686049  1306,6795.781,92.922,419.006,416.285,0.0
54072.0,STARLINK-5144,PAYLOAD,2022-11-19 22:00:00,15.49349609,0.0003874,53.2174,359.401,279.3016,293.2671,-0.019433,-0.00989803,0.0,0 STARLINK-5144,1 54072U 22136X   22323.91667824 -.00989803  00000-0 -19433-1 0  9997,2 54072  53.2174 359.4010 0003874 279.3016 293.2671 15.49349609  5267,6796.765,92.942,421.263,415.996,0.0
54072.0,STARLINK-5144,PAYLOAD,2022-11-20 06:00:00,15.48655618,0.000155,53.2172,357.8104,16.0676,256.3324,-0.021168,-0.01045729,0.0,0 STARLINK-5144,1 54072U 22136X   22324.25001157 -.01045729  00000-0 -21168-1 0  9995,2 54072  53.2172 357.8104 0001550  16.0676 256.3324 15.48655618  5318,6798.795,92.984,421.714,419.606,0.0
54072.0,STARLINK-5144,PAYLOAD,2022-11-20 14:00:01,15.4794006,0.0001561999999999,53.2168,356.2231,35.2966,296.0618,-0.022194,-0.01066985,0.0,0 STARLINK-5144,1 54072U 22136X   22324.58334491 -.01066985  00000-0 -22194-1 0  9998,2 54072  53.2168 356.2231 0001562  35.2966 296.0618 15.47940060  1304,6800.89,93.027,423.817,421.693,0.0
54072.0,STARLINK-5144,PAYLOAD,2022-11-20 22:00:00,15.47172032,0.0001541,53.2174,354.6322,35.5533,353.9136,-0.021703,-0.01020187,0.0,0 STARLINK-5144,1 54072U 22136X   22324.91667824 -.01020187  00000-0 -21703-1 0  9993,2 54072  53.2174 354.6322 0001541  35.5533 353.9136 15.47172032  1308,6803.14,93.073,426.054,423.957,0.0
54072.0,STARLINK-5144,PAYLOAD,2022-11-21 08:00:01,15.4625875,0.0001554,53.2171,352.6522,50.9537,139.884,-0.022475,-0.01023134,0.0,0 STARLINK-5144,1 54072U 22136X   22325.33334491 -.01023134  00000-0 -22475-1 0  9993,2 54072  53.2171 352.6522 0001554  50.9537 139.8840 15.46258750  5481,6805.819,93.128,428.742,426.626,0.0
54072.0,STARLINK-5144,PAYLOAD,2022-11-21 14:00:01,15.45748089,0.0001675999999999,53.2168,351.4657,38.4298,104.5515,-0.024134,-0.01074199,0.0,0 STARLINK-5144,1 54072U 22136X   22325.58334491 -.01074199  00000-0 -24134-1 0  9991,2 54072  53.2168 351.4657 0001676  38.4298 104.5515 15.45748089  1306,6807.318,93.159,430.324,428.042,0.0
54072.0,STARLINK-5144,PAYLOAD,2022-11-21 22:00:00,15.44974274,0.0001716,53.2172,349.8807,38.7501,159.7013,-0.02337,-0.01018226,0.0,0 STARLINK-5144,1 54072U 22136X   22325.91667824 -.01018226  00000-0 -23370-1 0  9997,2 54072  53.2172 349.8807 0001716  38.7501 159.7013 15.44974274  1305,6809.590999999999,93.205,432.624,430.287,0.0
54072.0,STARLINK-5144,PAYLOAD,2022-11-22 06:00:02,15.44242697,0.0001713,53.2174,348.301,40.8175,212.2653,-0.023987,-0.01019125,0.0,0 STARLINK-5144,1 54072U 22136X   22326.25002315 -.01019125  00000-0 -23987-1 0  9996,2 54072  53.2174 348.3010 0001713  40.8175 212.2653 15.44242697  5626,6811.741,93.25,434.773,432.439,0.0
54072.0,STARLINK-5144,PAYLOAD,2022-11-22 14:00:01,15.4346688,0.0001795,53.2168,346.7241,36.031,270.7606,-0.023098,-0.00961039,0.0,0 STARLINK-5144,1 54072U 22136X   22326.58335648 -.00961039  00000-0 -23098-1 0  9992,2 54072  53.2168 346.7241 0001795  36.0310 270.7606 15.43466880  1304,6814.024,93.296,437.112,434.665,0.0
54072.0,STARLINK-5144,PAYLOAD,2022-11-22 22:00:00,15.42777082,0.0001443,53.2173,345.1441,40.4307,319.085,-0.025187,-0.01018069,0.0,0 STARLINK-5144,1 54072U 22136X   22326.91667824 -.01018069  00000-0 -25187-1 0  9991,2 54072  53.2173 345.1441 0001443  40.4307 319.0850 15.42777082  1306,6816.055,93.338,438.903,436.936,0.0
54072.0,STARLINK-5144,PAYLOAD,2022-11-23 08:00:01,15.41862635,0.0001679,53.2173,343.1775,49.2238,105.0626,-0.026021,-0.01019711,0.0,0 STARLINK-5144,1 54072U 22136X   22327.33334491 -.01019711  00000-0 -26021-1 0  9992,2 54072  53.2173 343.1775 0001679  49.2238 105.0626 15.41862635  5794,6818.749,93.394,441.759,439.469,0.0
54072.0,STARLINK-5144,PAYLOAD,2022-11-23 14:00:01,15.4134166,0.0001686999999999,53.2167,341.9983,35.6534,66.8209,-0.027503,-0.01070277,0.0,0 STARLINK-5144,1 54072U 22136X   22327.58334491 -.01070277  00000-0 -27503-1 0  9999,2 54072  53.2167 341.9983 0001687  35.6534  66.8209 15.41341660  1305,6820.286,93.425,443.301,441.0,0.0
54072.0,STARLINK-5144,PAYLOAD,2022-11-23 22:00:00,15.40589902,0.0001825,53.2171,340.4251,37.6967,114.9569,-0.027505,-0.01045895,0.0,0 STARLINK-5144,1 54072U 22136X   22327.91667824 -.01045895  00000-0 -27505-1 0  9995,2 54072  53.2171 340.4251 0001825  37.6967 114.9569 15.40589902  1304,6822.504,93.471,445.614,443.124,0.0
54072.0,STARLINK-5144,PAYLOAD,2022-11-24 08:00:01,15.39666343,0.000158,53.2174,338.4637,43.831,260.2981,-0.028031,-0.01034576,0.0,0 STARLINK-5144,1 54072U 22136X   22328.33334491 -.01034576  00000-0 -28031-1 0  9992,2 54072  53.2174 338.4637 0001580  43.8310 260.2981 15.39666343  5941,6825.232,93.527,448.176,446.019,0.0
54072.0,STARLINK-5144,PAYLOAD,2022-11-24 14:00:01,15.39126579,0.000168,53.2165,337.2882,42.9808,207.3664,-0.028926,-0.01047642,0.0,0 STARLINK-5144,1 54072U 22136X   22328.58334491 -.01047642  00000-0 -28926-1 0  9990,2 54072  53.2165 337.2882 0001680  42.9808 207.3664 15.39126579  1301,6826.828,93.56,449.84,447.546,0.0
54072.0,STARLINK-5144,PAYLOAD,2022-11-24 22:00:00,15.38382385,0.0001715,53.2171,335.7201,37.4942,260.3869,-0.029118,-0.01030515,0.0,0 STARLINK-5144,1 54072U 22136X   22328.91667824 -.01030515  00000-0 -29118-1 0  9991,2 54072  53.2171 335.7201 0001715  37.4942 260.3869 15.38382385  1307,6829.029,93.605,452.065,449.723,0.0
54072.0,STARLINK-5144,PAYLOAD,2022-11-25 08:00:01,15.37471272,0.0001673,53.2173,333.7657,46.1291,39.9214,-0.030217,-0.01037393,0.0,0 STARLINK-5144,1 54072U 22136X   22329.33334491 -.01037393  00000-0 -30217-1 0  9992,2 54072  53.2173 333.7657 0001673  46.1291  39.9214 15.37471272  6097,6831.727,93.66,454.735,452.449,0.0
54072.0,STARLINK-5144,PAYLOAD,2022-11-25 14:00:01,15.36921378,0.0001743,53.2163,332.5939,30.7459,359.5477,-0.030716,-0.01035941,0.0,0 STARLINK-5144,1 54072U 22136X   22329.58334491 -.01035941  00000-0 -30716-1 0  9990,2 54072  53.2163 332.5939 0001743  30.7459 359.5477 15.36921378  1306,6833.356,93.694,456.412,454.03,0.0
54072.0,STARLINK-5144,PAYLOAD,2022-11-25 22:00:00,15.36188659,0.0001869,53.2171,331.0306,34.0925,41.0897,-0.031451,-0.01035849,0.0,0 STARLINK-5144,1 54072U 22136X   22329.91667824 -.01035849  00000-0 -31451-1 0  9990,2 54072  53.2171 331.0306 0001869  34.0925  41.0897 15.36188659  1307,6835.529,93.738,458.672,456.117,0.0
54072.0,STARLINK-5144,PAYLOAD,2022-11-26 06:00:00,15.35459368,0.0001595,53.2169,329.4726,49.7627,69.4243,-0.032332,-0.01039693,0.0,0 STARLINK-5144,1 54072U 22136X   22330.25001157 -.01039693  00000-0 -32332-1 0  9990,2 54072  53.2169 329.4726 0001595  49.7627  69.4243 15.35459368  6232,6837.693,93.783,460.649,458.468,0.0
54072.0,STARLINK-5144,PAYLOAD,2022-11-26 14:00:01,15.34729354,0.0001805,53.2164,327.915,40.0567,122.2556,-0.033168,-0.01041721,0.0,0 STARLINK-5144,1 54072U 22136X   22330.58334491 -.01041721  00000-0 -33168-1 0  9999,2 54072  53.2164 327.9150 0001805  40.0567 122.2556 15.34729354  1304,6839.861999999999,93.828,462.961,460.492,0.0
54072.0,STARLINK-5144,PAYLOAD,2022-11-26 22:00:00,15.33994399,0.0001733,53.2168,326.3573,42.0487,162.5133,-0.033877,-0.01039446,0.0,0 STARLINK-5144,1 54072U 22136X   22330.91667824 -.01039446  00000-0 -33877-1 0  9993,2 54072  53.2168 326.3573 0001733  42.0487 162.5133 15.33994399  1303,6842.045999999999,93.873,465.097,462.725,0.0
54072.0,STARLINK-5144,PAYLOAD,2022-11-27 06:00:00,15.33264644,0.0001567,53.217,324.8044,51.9636,193.9628,-0.034758,-0.01041752,0.0,0 STARLINK-5144,1 54072U 22136X   22331.25001157 -.01041752  00000-0 -34758-1 0  9994,2 54072  53.2170 324.8044 0001567  51.9636 193.9628 15.33264644  6396,6844.217,93.917,467.154,465.009,0.0
54072.0,STARLINK-5144,PAYLOAD,2022-11-27 14:00:01,15.32536787,0.0001629,53.2166,323.2517,40.3111,246.1008,-0.035848,-0.01049286,0.0,0 STARLINK-5144,1 54072U 22136X   22331.58334491 -.01049286  00000-0 -35848-1 0  9991,2 54072  53.2166 323.2517 0001629  40.3111 246.1008 15.32536787  1306,6846.384,93.962,469.364,467.133,0.0
54072.0,STARLINK-5144,PAYLOAD,2022-11-27 22:00:00,15.31789152,0.0001657,53.2169,321.6996,36.3483,289.6781,-0.035861,-0.01027091,0.0,0 STARLINK-5144,1 54072U 22136X   22331.91667824 -.01027091  00000-0 -35861-1 0  9992,2 54072  53.2169 321.6996 0001657  36.3483 289.6781 15.31789152  1305,6848.611,94.008,471.611,469.341,0.0
54072.0,STARLINK-5144,PAYLOAD,2022-11-28 08:00:01,15.30879747,0.0001631,53.2173,319.7649,44.8172,59.4767,-0.03724,-0.01035831,0.0,0 STARLINK-5144,1 54072U 22136X   22332.33334491 -.01035831  00000-0 -37240-1 0  9994,2 54072  53.2173 319.7649 0001631  44.8172  59.4767 15.30879747  6552,6851.323,94.064,474.306,472.071,0.0
54072.0,STARLINK-5144,PAYLOAD,2022-11-28 22:00:01,15.29596824,0.000181,53.217,317.057,33.7331,45.8948,-0.038645,-0.01033064,0.0,0 STARLINK-5144,1 54072U 22136X   22332.91668981 -.01033064  00000-0 -38645-1 0  9998,2 54072  53.2170 317.0570 0001810  33.7331  45.8948 15.29596824  1304,6855.154,94.142,478.259,475.778,0.0
